EUTELSAT 53A            
1 40277U 14064A   26156.21725707  .00000110  00000+0  00000+0 0  9996
2 40277   0.0152 293.5804 0000722 230.6889 220.5970  1.00272198 41446
GSAT-16                 
1 40332U 14078A   26156.14630516  .00000097  00000+0  00000+0 0  9992
2 40332   0.0605  94.4629 0007915 349.5506 277.3138  1.00271320 41982
DIRECTV 14              
1 40333U 14078B   26155.90187811 -.00000113  00000+0  00000+0 0  9991
2 40333   0.0095 324.1263 0000256 199.1564 315.5074  1.00272349 41927
YAMAL 401               
1 40345U 14082A   26155.85829630  .00000000  00000+0  00000+0 0  9999
2 40345   0.0139 329.6605 0000052 147.4649 175.1158  1.00272023 41790
ASTRA 2G                
1 40364U 14089A   26156.14101847  .00000162  00000+0  00000+0 0  9992
2 40364   0.0482   5.0525 0005191  53.8376 273.6573  1.00269901 41846
FENGYUN 2G              
1 40367U 14090A   26154.80052208 -.00000292  00000+0  00000+0 0  9999
2 40367   5.6052  72.9774 0003440 153.7233  53.2439  1.00279146 41866
MUOS-3                  
1 40374U 15002A   26156.06115969 -.00000117  00000+0  00000+0 0  9991
2 40374   4.4984  43.4727 0051506 178.7076  37.8964  1.00272247 41466
INMARSAT 5-F2           
1 40384U 15005A   26155.48289815 -.00000273  00000+0  00000+0 0  9995
2 40384   0.0181 349.5743 0000640 195.3976 186.7891  1.00273154 40867
ABS-3A                  
1 40424U 15010A   26155.63582852 -.00000015  00000+0  00000+0 0  9994
2 40424   0.0206  68.2195 0001996 318.0086  92.7592  1.00270386 41259
EUTELSAT 115 WEST B     
1 40425U 15010B   26155.61527439 -.00000012  00000+0  00000+0 0  9990
2 40425   0.0091 147.2790 0000634 161.7662  50.6136  1.00265549 41265
EXPRESS-AM7             
1 40505U 15012A   26156.14335850  .00000163  00000+0  00000+0 0  9990
2 40505   0.0112  30.4179 0003330  49.9579 264.8042  1.00272533 40885
BEIDOU-3S IGSO-1S       
1 40549U 15019A   26155.86761368 -.00000162  00000+0  00000+0 0  9990
2 40549  49.2196 295.6097 0038520 191.1886 171.3228  1.00253760 40951
THOR 7                  
1 40613U 15022A   26156.13529845  .00000004  00000+0  00000+0 0  9993
2 40613   0.0086 323.5595 0002781 111.2417 226.8338  1.00272443 40691
TURKMENALEM52E/MONACOSAT
1 40617U 15023A   26156.14569851  .00000116  00000+0  00000+0 0  9994
2 40617   0.0420  80.2187 0003148 351.8523 285.9749  1.00272172 40724
DIRECTV 15              
1 40663U 15026A   26155.97249913 -.00000090  00000+0  00000+0 0  9994
2 40663   0.0173   7.9959 0000127 267.6092 225.0151  1.00272632 40343
SKY MEXICO-1            
1 40664U 15026B   26156.12445529 -.00000222  00000+0  00000+0 0  9991
2 40664   0.0163   7.4689 0002320  82.1960 129.9020  1.00272705 40336
METEOSAT-11 (MSG-4)     
1 40732U 15034A   26156.13729181  .00000075  00000+0  00000+0 0  9991
2 40732   3.1722  71.1763 0001647   4.0243 237.1683  1.00276548  7098
STAR ONE C4             
1 40733U 15034B   26155.69505478 -.00000253  00000+0  00000+0 0  9992
2 40733   0.0210 346.4517 0002607  80.0103   6.9016  1.00270772 39885
WGS F7 (USA 263)        
1 40746U 15036A   26155.72267251  .00000030  00000+0  00000+0 0  9998
2 40746   0.0027 357.1446 0000155 343.1865 347.9774  1.00271153 39747
INTELSAT 34 (IS-34)     
1 40874U 15039A   26155.91054483 -.00000273  00000+0  00000+0 0  9995
2 40874   0.0092 325.9423 0000276  62.8751 136.8315  1.00269697 39513
EUTELSAT 8 WEST B       
1 40875U 15039B   26155.91998573 -.00000053  00000+0  00000+0 0  9999
2 40875   0.0642 348.2503 0003859  82.5578 145.7544  1.00272149 39539
GSAT-6                  
1 40880U 15041A   26156.15176521 -.00000148  00000+0  00000+0 0  9991
2 40880   1.8893  82.7370 0003370 347.2665 320.7403  1.00271969 39471
INMARSAT 5-F3           
1 40882U 15042A   26155.91155722  .00000062  00000+0  00000+0 0  9991
2 40882   0.0174 354.2136 0000489  66.6911 340.2421  1.00270843 39441
MUOS-4                  
1 40887U 15044A   26156.21919905 -.00000082  00000+0  00000+0 0  9996
2 40887   4.3071  42.1662 0059706   4.6690   0.7625  1.00272432 39448
TJS-1                   
1 40892U 15046A   26155.95221905 -.00000143  00000+0  00000+0 0  9998
2 40892   0.2913  85.0055 0005920 352.8175 313.4115  1.00273319 39444
EXPRESS-AM8             
1 40895U 15048A   26155.91877241 -.00000099  00000+0  00000+0 0  9999
2 40895   0.0136 291.7864 0000191 146.5311 131.7986  1.00271836 39226
BEIDOU-3S IGSO-2S       
1 40938U 15053A   26155.76900253 -.00000132  00000+0  00000+0 0  9994
2 40938  49.2418 258.9308 0064952 192.1222 174.7728  1.00262689 39231
SKY MUSTER 1 (NBN1A)    
1 40940U 15054A   26155.72923215  .00000000  00000+0  00000+0 0  9990
2 40940   0.0228 337.7484 0001938 115.9253 202.2548  1.00270772 39139
ARSAT 2                 
1 40941U 15054B   26156.19060999 -.00000213  00000+0  00000+0 0  9991
2 40941   0.0403  64.6689 0002233 359.1184 177.4731  1.00271392 39183
MORELOS 3               
1 40946U 15056A   26156.11304963 -.00000032  00000+0  00000+0 0  9991
2 40946   3.1775  14.7606 0001766 350.8385 175.5378  1.00270925 39165
APSTAR-9                
1 40982U 15059A   26155.94970571 -.00000253  00000+0  00000+0 0  9993
2 40982   0.0160 337.7164 0002100 199.6928 199.8958  1.00271802 38999
TURKSAT 4B              
1 40984U 15060A   26156.14535183  .00000126  00000+0  00000+0 0  9994
2 40984   0.0182 339.1359 0002416  94.9713 281.8309  1.00275705 38972
