OBJECT_NAME,OBJECT_ID,EPOCH,MEAN_MOTION,ECCENTRICITY,INCLINATION,RA_OF_ASC_NODE,ARG_OF_PERICENTER,MEAN_ANOMALY,EPHEMERIS_TYPE,CLASSIFICATION_TYPE,NORAD_CAT_ID,ELEMENT_SET_NO,REV_AT_EPOCH,BSTAR,MEAN_MOTION_DOT,MEAN_MOTION_DDOT
EUTELSAT 53A,2014-064A,2026-06-05T05:12:51.010848,1.00272198,.0000722,0.0152,293.5804,230.6889,220.5970,0,U,40277,999,4144,0,.11E-5,0
GSAT-16,2014-078A,2026-06-05T03:30:40.765824,1.00271320,.0007915,0.0605,94.4629,349.5506,277.3138,0,U,40332,999,4198,0,.97E-6,0
DIRECTV 14,2014-078B,2026-06-04T21:38:42.268704,1.00272349,.0000256,0.0095,324.1263,199.1564,315.5074,0,U,40333,999,4192,0,-.113E-5,0
YAMAL 401,2014-082A,2026-06-04T20:35:56.800320,1.00272023,.00000521,0.0139,329.6605,147.4649,175.1158,0,U,40345,999,4179,0,0,0
ASTRA 2G,2014-089A,2026-06-05T03:23:03.995808,1.00269901,.0005191,0.0482,5.0525,53.8376,273.6573,0,U,40364,999,4184,0,.162E-5,0
FENGYUN 2G,2014-090A,2026-06-03T19:12:45.107712,1.00279146,.00034407,5.6052,72.9774,153.7233,53.2439,0,U,40367,999,4186,0,-.292E-5,0
MUOS-3,2015-002A,2026-06-05T01:28:04.197216,1.00272247,.0051506,4.4984,43.4727,178.7076,37.8964,0,U,40374,999,4146,0,-.117E-5,0
INMARSAT 5-F2,2015-005A,2026-06-04T11:35:22.400160,1.00273154,.000064,0.0181,349.5743,195.3976,186.7891,0,U,40384,999,4086,0,-.273E-5,0
ABS-3A,2015-010A,2026-06-04T15:15:35.584128,1.00270386,.00019962,0.0206,68.2195,318.0086,92.7592,0,U,40424,999,4125,0,-.15E-6,0
EUTELSAT 115 WEST B,2015-010B,2026-06-04T14:45:59.707296,1.00265549,.00006344,0.0091,147.2790,161.7662,50.6136,0,U,40425,999,4126,0,-.12E-6,0
EXPRESS-AM7,2015-012A,2026-06-05T03:26:26.174400,1.00272533,.000333,0.0112,30.4179,49.9579,264.8042,0,U,40505,999,4088,0,.163E-5,0
BEIDOU-3S IGSO-1S,2015-019A,2026-06-04T20:49:21.821952,1.00253760,.003852,49.2196,295.6097,191.1886,171.3228,0,U,40549,999,4095,0,-.162E-5,0
THOR 7,2015-022A,2026-06-05T03:14:49.786080,1.00272443,.0002781,0.0086,323.5595,111.2417,226.8338,0,U,40613,999,4069,0,.4E-7,0
TURKMENALEM52E/MONACOSAT,2015-023A,2026-06-05T03:29:48.351264,1.00272172,.0003148,0.0420,80.2187,351.8523,285.9749,0,U,40617,999,4072,0,.116E-5,0
DIRECTV 15,2015-026A,2026-06-04T23:20:23.924832,1.00272632,.0000127,0.0173,7.9959,267.6092,225.0151,0,U,40663,999,4034,0,-.9E-6,0
SKY MEXICO-1,2015-026B,2026-06-05T02:59:12.937056,1.00272705,.000232,0.0163,7.4689,82.1960,129.9020,0,U,40664,999,4033,0,-.222E-5,0
METEOSAT-11 (MSG-4),2015-034A,2026-06-05T03:17:42.012384,1.00276548,.0001647,3.1722,71.1763,4.0243,237.1683,0,U,40732,999,709,0,.75E-6,0
STAR ONE C4,2015-034B,2026-06-04T16:40:52.732992,1.00270772,.00026076,0.0210,346.4517,80.0103,6.9016,0,U,40733,999,3988,0,-.253E-5,0
WGS F7 (USA 263),2015-036A,2026-06-04T17:20:38.904864,1.00271153,.0000155,0.0027,357.1446,343.1865,347.9774,0,U,40746,999,3974,0,.3E-6,0
INTELSAT 34 (IS-34),2015-039A,2026-06-04T21:51:11.073312,1.00269697,.0000276,0.0092,325.9423,62.8751,136.8315,0,U,40874,999,3951,0,-.273E-5,0
EUTELSAT 8 WEST B,2015-039B,2026-06-04T22:04:46.767072,1.00272149,.0003859,0.0642,348.2503,82.5578,145.7544,0,U,40875,999,3953,0,-.53E-6,0
GSAT-6,2015-041A,2026-06-05T03:38:32.514144,1.00271969,.000337,1.8893,82.7370,347.2665,320.7403,0,U,40880,999,3947,0,-.148E-5,0
INMARSAT 5-F3,2015-042A,2026-06-04T21:52:38.543808,1.00270843,.0000489,0.0174,354.2136,66.6911,340.2421,0,U,40882,999,3944,0,.62E-6,0
MUOS-4,2015-044A,2026-06-05T05:15:38.797920,1.00272432,.0059706,4.3071,42.1662,4.6690,0.7625,0,U,40887,999,3944,0,-.82E-6,0
TJS-1,2015-046A,2026-06-04T22:51:11.725920,1.00273319,.000592,0.2913,85.0055,352.8175,313.4115,0,U,40892,999,3944,0,-.143E-5,0
EXPRESS-AM8,2015-048A,2026-06-04T22:03:01.936224,1.00271836,.0000191,0.0136,291.7864,146.5311,131.7986,0,U,40895,999,3922,0,-.99E-6,0
BEIDOU-3S IGSO-2S,2015-053A,2026-06-04T18:27:21.818592,1.00262689,.00649525,49.2418,258.9308,192.1222,174.7728,0,U,40938,999,3923,0,-.132E-5,0
SKY MUSTER 1 (NBN1A),2015-054A,2026-06-04T17:30:05.657760,1.00270772,.00019387,0.0228,337.7484,115.9253,202.2548,0,U,40940,999,3913,0,0,0
ARSAT 2,2015-054B,2026-06-05T04:34:28.703136,1.00271392,.0002233,0.0403,64.6689,359.1184,177.4731,0,U,40941,999,3918,0,-.213E-5,0
MORELOS 3,2015-056A,2026-06-05T02:42:47.488032,1.00270925,.0001766,3.1775,14.7606,350.8385,175.5378,0,U,40946,999,3916,0,-.32E-6,0
APSTAR-9,2015-059A,2026-06-04T22:47:34.573344,1.00271802,.00021,0.0160,337.7164,199.6928,199.8958,0,U,40982,999,3899,0,-.253E-5,0
TURKSAT 4B,2015-060A,2026-06-05T03:29:18.398112,1.00275705,.0002416,0.0182,339.1359,94.9713,281.8309,0,U,40984,999,3897,0,.126E-5,0
